{
  "type": "FeatureCollection",
  "name": "ded-pmh-portfolio-regions",
  "features": [
    {
      "type": "Feature",
      "properties": {
        "id": "bac-ninh",
        "name": "Bắc Ninh",
        "fill": "#0F4C3A"
      },
      "geometry": {
        "type": "Polygon",
        "coordinates": [
          [
            [105.92, 21.02],
            [106.28, 21.02],
            [106.28, 21.32],
            [105.92, 21.32],
            [105.92, 21.02]
          ]
        ]
      }
    },
    {
      "type": "Feature",
      "properties": {
        "id": "tp-hcm",
        "name": "TP.HCM",
        "fill": "#0F4C3A"
      },
      "geometry": {
        "type": "Polygon",
        "coordinates": [
          [
            [106.45, 10.35],
            [107.05, 10.35],
            [107.05, 11.05],
            [106.45, 11.05],
            [106.45, 10.35]
          ]
        ]
      }
    }
  ]
}
